OBJECT_NAME,OBJECT_ID,EPOCH,MEAN_MOTION,ECCENTRICITY,INCLINATION,RA_OF_ASC_NODE,ARG_OF_PERICENTER,MEAN_ANOMALY,EPHEMERIS_TYPE,CLASSIFICATION_TYPE,NORAD_CAT_ID,ELEMENT_SET_NO,REV_AT_EPOCH,BSTAR,MEAN_MOTION_DOT,MEAN_MOTION_DDOT
LINK,2026-152A,2026-07-16T14:02:21.826176,15.67506125,.0024752,20.5917,316.6992,14.3025,345.8119,0,U,69792,999,207,.11602E-2,.137098E-2,0
ISS OBJECT YJ,1998-067YJ,2026-07-16T06:36:16.642368,15.50069444,.00077822,51.6316,156.0558,315.4379,44.5983,0,U,69794,999,216,.32058201E-3,.17942E-3,0
ISS OBJECT YK,1998-067YK,2026-07-16T06:30:10.006560,15.50781978,.00067037,51.6315,156.0282,324.0452,36.0086,0,U,69795,999,216,.55506535E-3,.32264E-3,0
ISS OBJECT YL,1998-067YL,2026-07-16T14:15:49.853664,15.50550046,.00087699,51.6314,154.4373,317.4896,42.5414,0,U,69796,999,220,.46629642E-3,.26803E-3,0
ISS OBJECT YM,1998-067YM,2026-07-16T06:31:22.800288,15.50571715,.00095827,51.6313,156.0339,308.1908,51.8217,0,U,69797,999,214,.42677001E-3,.2451E-3,0
ISS OBJECT YN,1998-067YN,2026-07-16T06:32:34.399104,15.50346409,.00092197,51.6315,156.0389,319.3500,40.6800,0,U,69798,999,216,.30215505E-3,.17059E-3,0
PROVES-ELECTRA,1998-067YP,2026-07-16T06:31:16.679712,15.50565584,.00097344,51.6313,156.0335,308.0926,51.9185,0,U,69799,999,215,.41405532E-3,.2376E-3,0
QIANFAN-201,2026-153A,2026-07-17T03:18:50.715072,14.26541753,.0008289,88.9924,358.8233,176.0885,184.0375,0,U,69800,999,182,.76474E-4,.199E-5,0
QIANFAN-202,2026-153B,2026-07-17T03:45:58.296672,14.18843359,.000687,88.9924,358.8263,168.3527,191.7822,0,U,69801,999,182,.1381E-4,.43E-6,0
QIANFAN-203,2026-153C,2026-07-17T03:38:36.466080,14.22390827,.0007501,88.9924,358.8255,177.4942,182.6288,0,U,69802,999,182,.18621E-4,.56E-6,0
QIANFAN-204,2026-153D,2026-07-17T03:41:24.876960,14.20114220,.0007836,88.9925,358.8257,172.0367,188.0949,0,U,69803,999,182,.13299E-4,.43E-6,0
QIANFAN-205,2026-153E,2026-07-17T03:40:32.990304,14.22264632,.0007707,88.9923,358.8255,176.0025,184.1230,0,U,69804,999,182,.42556E-4,.109E-5,0
QIANFAN-206,2026-153F,2026-07-17T03:28:11.814816,14.24034565,.0008192,88.9924,358.8243,176.7322,183.3926,0,U,69805,999,182,.13489E-4,.46E-6,0
QIANFAN-207,2026-153G,2026-07-17T03:25:59.392128,14.24250733,.0007628,88.9924,358.8241,176.7474,183.3769,0,U,69806,999,182,.54879E-4,.141E-5,0
QIANFAN-208,2026-153H,2026-07-17T03:22:58.842048,14.25462369,.0008423,88.9923,358.8237,177.5121,182.6116,0,U,69807,999,182,.5682E-4,.149E-5,0
QIANFAN-209,2026-153J,2026-07-17T03:28:09.933024,14.23086331,.0007552,88.9924,358.8242,173.9211,186.2074,0,U,69808,999,182,.3517E-4,.94E-6,0
QIANFAN-210,2026-153K,2026-07-17T05:04:31.154880,14.23252532,.0008102,88.9925,358.8158,176.5491,183.5758,0,U,69809,999,183,.15543E-4,.5E-6,0
QIANFAN-211,2026-153L,2026-07-17T01:41:21.370272,14.23381926,.0007701,88.9924,358.8317,173.6395,186.4896,0,U,69810,999,181,.15311E-4,.49E-6,0
QIANFAN-212,2026-153M,2026-07-16T22:14:52.798272,14.26669772,.0008246,88.9923,358.8475,179.1542,180.9667,0,U,69811,999,179,.59325E-4,.158E-5,0
QIANFAN-213,2026-153N,2026-07-17T03:17:49.593120,14.26674155,.0007979,88.9924,358.8232,178.3507,181.7715,0,U,69812,999,182,.61453E-4,.163E-5,0
QIANFAN-214,2026-153P,2026-07-17T01:36:43.763616,14.26715307,.000801,88.9924,358.8314,177.9806,182.1422,0,U,69813,999,181,.41173E-4,.114E-5,0
QIANFAN-215,2026-153Q,2026-07-17T03:17:41.023104,14.26718671,.00081,88.9923,358.8229,179.1491,180.9718,0,U,69814,999,182,.47244E-4,.129E-5,0
QIANFAN-216,2026-153R,2026-07-17T03:17:40.400160,14.26719748,.0008061,88.9924,358.8232,178.9478,181.1734,0,U,69815,999,182,.15908E-4,.53E-6,0
QIANFAN-217,2026-153S,2026-07-17T03:17:02.300352,14.26767980,.0007752,88.9918,358.8232,176.4932,183.6317,0,U,69816,999,182,-.14269E-4,-.2E-6,0
QIANFAN-218,2026-153T,2026-07-17T03:16:30.259776,14.26810963,.0007546,88.9925,358.8233,172.7901,187.3403,0,U,69817,999,182,.38606E-4,.108E-5,0
STARLINK-37520,2026-154A,2026-07-17T04:00:01.998720,15.80871510,.0001599,53.1584,283.0718,78.6700,349.6854,0,U,69819,999,298,.58443E-4,.10849E-3,0
STARLINK-37553,2026-154B,2026-07-17T04:00:01.998720,15.80864836,.0000808,53.1585,283.0628,102.5259,330.1022,0,U,69820,999,298,.11827E-3,.22696E-3,0
STARLINK-37561,2026-154C,2026-07-17T04:00:01.998720,15.80856958,.0001185,53.1585,283.0535,94.7811,342.1204,0,U,69821,999,298,.19566E-3,.38061E-3,0
STARLINK-37521,2026-154D,2026-07-17T04:00:01.998720,15.80866806,.0001142,53.1586,283.0449,92.8843,348.2868,0,U,69822,999,298,.80261E-4,.15165E-3,0
STARLINK-37628,2026-154E,2026-07-17T04:00:01.998720,15.80856448,.0001118,53.1587,283.0360,87.2152,358.2318,0,U,69823,999,298,.1863E-3,.36196E-3,0
STARLINK-37695,2026-154F,2026-07-17T04:00:01.998720,15.80817283,.0000414,53.1588,282.9546,137.5077,347.4415,0,U,69824,999,298,.27437E-3,.53651E-3,0
STARLINK-37690,2026-154G,2026-07-17T04:00:01.998720,15.80867177,.0001118,53.1587,283.0189,98.8064,355.1784,0,U,69825,999,298,.13757E-3,.26529E-3,0
STARLINK-37710,2026-154H,2026-07-17T04:00:01.998720,15.80868646,.0001016,53.1586,283.0100,93.4243,4.8327,0,U,69826,999,298,.71613E-4,.13454E-3,0
STARLINK-38031,2026-154J,2026-07-17T04:00:01.998720,15.80892462,.0000711,53.1585,283.0009,72.1105,30.4056,0,U,69827,999,298,-.11885E-3,-.2411E-3,0
STARLINK-38001,2026-154K,2026-07-17T04:00:01.998720,15.80860262,.0001217,53.1623,282.9920,88.1717,18.6217,0,U,69828,999,298,.20182E-3,.39292E-3,0
STARLINK-37622,2026-154L,2026-07-17T04:00:01.998720,15.80858419,.0001089,53.1621,282.9832,82.4274,28.6430,0,U,69829,999,298,.17976E-3,.34899E-3,0
STARLINK-37621,2026-154M,2026-07-17T04:00:01.998720,15.80841884,.0000762,53.1620,282.9743,93.4678,21.8758,0,U,69830,999,298,.30568E-3,.59964E-3,0
STARLINK-37918,2026-154N,2026-07-17T04:00:01.998720,15.80858005,.0001072,53.1586,282.9654,101.7651,17.8539,0,U,69831,999,298,.17119E-3,.33194E-3,0
STARLINK-37887,2026-154P,2026-07-17T04:00:01.998720,15.80940194,.0000718,53.1586,282.9568,66.2665,57.5394,0,U,69832,999,298,-.10728E-3,-.21884E-3,0
STARLINK-37624,2026-154Q,2026-07-17T04:00:01.998720,15.80831714,.0000924,53.1619,282.9475,85.9532,42.2127,0,U,69833,999,298,.37151E-3,.73108E-3,0
STARLINK-37769,2026-154R,2026-07-17T04:00:01.998720,15.80880158,.0001245,53.1584,282.9389,91.4295,40.9959,0,U,69834,999,298,.11814E-4,.1634E-4,0
STARLINK-37247,2026-154S,2026-07-17T04:00:01.998720,15.80860182,.0001515,53.1586,282.9304,50.1791,86.3921,0,U,69835,999,308,.54106E-3,.107363E-2,0
STARLINK-37569,2026-154T,2026-07-17T04:00:01.998720,15.80854703,.0001053,53.1587,282.9212,95.2655,45.7130,0,U,69836,999,298,.16919E-3,.32793E-3,0
STARLINK-37587,2026-154U,2026-07-17T04:00:01.998720,15.80888894,.0001288,53.1584,282.9124,78.1112,67.1310,0,U,69837,999,295,-.44795E-4,-.9537E-4,0
STARLINK-37590,2026-154V,2026-07-17T04:00:01.998720,15.80878195,.0000808,53.1585,282.9036,113.6495,35.8642,0,U,69838,999,282,.51358E-4,.9451E-4,0
STARLINK-37589,2026-154W,2026-07-17T04:00:01.998720,15.80836162,.0001175,53.1618,282.8943,102.6903,51.1067,0,U,69839,999,295,.39271E-3,.77374E-3,0
STARLINK-37487,2026-154X,2026-07-17T04:00:01.998720,15.87877343,.0000688,53.1570,282.4604,83.0005,279.3012,0,U,69840,999,296,-.61828E-2,-.147867E-1,0
STARLINK-37433,2026-154Y,2026-07-17T04:00:01.998720,15.87322046,.0000897,53.1570,282.4450,79.0024,290.6219,0,U,69841,999,308,-.96066E-2,-.2205934E-1,0
STARLINK-37588,2026-154Z,2026-07-17T04:00:01.998720,15.88717610,.0000667,53.1568,282.4342,67.5899,307.2442,0,U,69842,999,299,-.41598E-2,-.1063103E-1,0
STARLINK-37579,2026-154AA,2026-07-17T04:00:01.998720,15.87318210,.0000721,53.1567,282.4200,80.8451,300.6793,0,U,69843,999,299,-.74549E-2,-.1734428E-1,0
STARLINK-37584,2026-154AB,2026-07-17T04:00:01.998720,15.87850755,.000055,53.1568,282.4088,92.8110,293.9290,0,U,69844,999,299,-.9363E-2,-.2207158E-1,0
STARLINK-37606,2026-154AC,2026-07-17T04:00:01.998720,15.86986844,.0000692,53.1567,282.3966,86.2964,306.2496,0,U,69845,999,299,-.78353E-2,-.1784532E-1,0
STARLINK-37603,2026-154AD,2026-07-17T04:00:01.998720,15.86661633,.0001002,53.1568,282.3830,77.6307,321.3618,0,U,69846,999,299,-.82374E-2,-.1837053E-1,0
STARLINK-37595,2026-154AE,2026-07-17T04:00:01.998720,15.86531340,.0000715,53.1565,282.3719,88.2874,315.7644,0,U,69847,999,299,-.83141E-2,-.1882898E-1,0
QIANFAN-219,2026-155A,2026-07-17T02:49:50.289024,14.26455163,.0030672,89.0065,60.7276,216.6012,143.3087,0,U,69848,999,165,.7829E-4,.204E-5,0
QIANFAN-220,2026-155B,2026-07-16T23:44:30.304896,14.16403044,.003539,89.0057,60.7457,221.7584,138.0902,0,U,69849,999,163,-.10535E+1,-.1953706E-1,0
QIANFAN-221,2026-155C,2026-07-17T04:29:42.012384,14.26647420,.0030488,89.0064,60.7193,216.7986,143.1116,0,U,69850,999,166,.85514E-4,.222E-5,0
QIANFAN-222,2026-155D,2026-07-17T03:04:50.518272,14.22185090,.0029483,89.0065,60.7291,217.1073,142.8081,0,U,69851,999,165,.77987E-4,.188E-5,0
QIANFAN-223,2026-155E,2026-07-17T03:01:35.700096,14.22139754,.0029234,89.0066,60.7290,216.4303,143.4899,0,U,69852,999,165,.3137E-4,.84E-6,0
QIANFAN-224,2026-155F,2026-07-17T02:58:19.883136,14.23568516,.0030113,89.0058,60.7277,216.5943,143.3192,0,U,69853,999,165,.86513E-4,.212E-5,0
QIANFAN-225,2026-155G,2026-07-17T04:36:27.770112,14.22450506,.0029135,89.0064,60.7200,217.2495,142.6677,0,U,69854,999,166,.17075E-4,.53E-6,0
QIANFAN-226,2026-155H,2026-07-17T01:11:25.218816,14.19697888,.0032995,89.0057,60.7364,217.0924,142.7986,0,U,69855,999,164,-.10507E+1,-.2062008E-1,0
QIANFAN-227,2026-155J,2026-07-16T23:25:51.050784,14.22103173,.0026882,89.0058,60.7437,217.6767,142.2542,0,U,69856,999,163,-.99223E+0,-.2035804E-1,0
QIANFAN-228,2026-155K,2026-07-16T23:26:05.307648,14.26684449,.0030569,89.0065,60.7434,217.3850,142.5218,0,U,69857,999,163,.77165E-4,.202E-5,0
QIANFAN-229,2026-155L,2026-07-17T01:07:00.573024,14.26689317,.0030613,89.0064,60.7354,216.9005,143.0083,0,U,69858,999,164,.13316E-4,.47E-6,0
QIANFAN-230,2026-155M,2026-07-17T01:25:44.772672,14.21842074,.0029215,89.0062,60.7370,217.5734,142.3417,0,U,69859,999,164,.41755E-4,.107E-5,0
